CCSDS_OMM_VERS = 2.0
CREATION_DATE  = 
ORIGINATOR     = 

OBJECT_NAME    = PROGRESS-MS 32
OBJECT_ID      = 2025-204A
CENTER_NAME    = EARTH
REF_FRAME      = TEME
TIME_SYSTEM    = UTC
MEAN_ELEMENT_THEORY = SGP/SGP4

EPOCH          = 2025-10-26T17:11:32.379072
MEAN_MOTION    = 15.49497961
ECCENTRICITY   = .00046055
INCLINATION    = 51.6344
RA_OF_ASC_NODE = 15.2829
ARG_OF_PERICENTER = 341.7148
MEAN_ANOMALY   = 18.3675

EPHEMERIS_TYPE = 0
CLASSIFICATION_TYPE = U
NORAD_CAT_ID   = 65586
ELEMENT_SET_NO = 999
REV_AT_EPOCH   = 27
BSTAR          = .28569155E-3
MEAN_MOTION_DOT = .156E-3
MEAN_MOTION_DDOT = 0

CCSDS_OMM_VERS = 2.0
CREATION_DATE  = 
ORIGINATOR     = 

OBJECT_NAME    = CYGNUS NG-23
OBJECT_ID      = 2025-208A
CENTER_NAME    = EARTH
REF_FRAME      = TEME
TIME_SYSTEM    = UTC
MEAN_ELEMENT_THEORY = SGP/SGP4

EPOCH          = 2025-10-26T17:11:32.379072
MEAN_MOTION    = 15.49497961
ECCENTRICITY   = .00046055
INCLINATION    = 51.6344
RA_OF_ASC_NODE = 15.2829
ARG_OF_PERICENTER = 341.7148
MEAN_ANOMALY   = 18.3675

EPHEMERIS_TYPE = 0
CLASSIFICATION_TYPE = U
NORAD_CAT_ID   = 65616
ELEMENT_SET_NO = 999
REV_AT_EPOCH   = 22
BSTAR          = .28569155E-3
MEAN_MOTION_DOT = .156E-3
MEAN_MOTION_DDOT = 0

CCSDS_OMM_VERS = 2.0
CREATION_DATE  = 
ORIGINATOR     = 

OBJECT_NAME    = DRAGONFLY
OBJECT_ID      = 1998-067XH
CENTER_NAME    = EARTH
REF_FRAME      = TEME
TIME_SYSTEM    = UTC
MEAN_ELEMENT_THEORY = SGP/SGP4

EPOCH          = 2025-10-26T22:01:38.307936
MEAN_MOTION    = 15.58484099
ECCENTRICITY   = .00027483
INCLINATION    = 51.6321
RA_OF_ASC_NODE = 12.8828
ARG_OF_PERICENTER = 46.2882
MEAN_ANOMALY   = 313.8338

EPHEMERIS_TYPE = 0
CLASSIFICATION_TYPE = U
NORAD_CAT_ID   = 65729
ELEMENT_SET_NO = 999
REV_AT_EPOCH   = 583
BSTAR          = .12136322E-2
MEAN_MOTION_DOT = .95066E-3
MEAN_MOTION_DDOT = 0

CCSDS_OMM_VERS = 2.0
CREATION_DATE  = 
ORIGINATOR     = 

OBJECT_NAME    = 1998-067XJ
OBJECT_ID      = 1998-067XJ
CENTER_NAME    = EARTH
REF_FRAME      = TEME
TIME_SYSTEM    = UTC
MEAN_ELEMENT_THEORY = SGP/SGP4

EPOCH          = 2025-10-26T14:17:27.007008
MEAN_MOTION    = 15.64976642
ECCENTRICITY   = .00098956
INCLINATION    = 51.6307
RA_OF_ASC_NODE = 13.7267
ARG_OF_PERICENTER = 16.8940
MEAN_ANOMALY   = 343.2383

EPHEMERIS_TYPE = 0
CLASSIFICATION_TYPE = U
NORAD_CAT_ID   = 65730
ELEMENT_SET_NO = 999
REV_AT_EPOCH   = 579
BSTAR          = .20956497E-2
MEAN_MOTION_DOT = .215253E-2
MEAN_MOTION_DDOT = 0

CCSDS_OMM_VERS = 2.0
CREATION_DATE  = 
ORIGINATOR     = 

OBJECT_NAME    = 1998-067XK
OBJECT_ID      = 1998-067XK
CENTER_NAME    = EARTH
REF_FRAME      = TEME
TIME_SYSTEM    = UTC
MEAN_ELEMENT_THEORY = SGP/SGP4

EPOCH          = 2025-10-26T14:45:08.498880
MEAN_MOTION    = 15.56772685
ECCENTRICITY   = .00042666
INCLINATION    = 51.6331
RA_OF_ASC_NODE = 14.6085
ARG_OF_PERICENTER = 18.3390
MEAN_ANOMALY   = 341.7755

EPHEMERIS_TYPE = 0
CLASSIFICATION_TYPE = U
NORAD_CAT_ID   = 65731
ELEMENT_SET_NO = 999
REV_AT_EPOCH   = 578
BSTAR          = .91742136E-3
MEAN_MOTION_DOT = .67037E-3
MEAN_MOTION_DDOT = 0

CCSDS_OMM_VERS = 2.0
CREATION_DATE  = 
ORIGINATOR     = 

OBJECT_NAME    = RSP-03
OBJECT_ID      = 1998-067XL
CENTER_NAME    = EARTH
REF_FRAME      = TEME
TIME_SYSTEM    = UTC
MEAN_ELEMENT_THEORY = SGP/SGP4

EPOCH          = 2025-10-26T22:14:44.274048
MEAN_MOTION    = 15.57630696
ECCENTRICITY   = .0005052
INCLINATION    = 51.6327
RA_OF_ASC_NODE = 12.9438
ARG_OF_PERICENTER = 20.1421
MEAN_ANOMALY   = 339.9769

EPHEMERIS_TYPE = 0
CLASSIFICATION_TYPE = U
NORAD_CAT_ID   = 65732
ELEMENT_SET_NO = 999
REV_AT_EPOCH   = 584
BSTAR          = .10796946E-2
MEAN_MOTION_DOT = .81728E-3
MEAN_MOTION_DDOT = 0

CCSDS_OMM_VERS = 2.0
CREATION_DATE  = 
ORIGINATOR     = 

OBJECT_NAME    = GHS-01
OBJECT_ID      = 1998-067XM
CENTER_NAME    = EARTH
REF_FRAME      = TEME
TIME_SYSTEM    = UTC
MEAN_ELEMENT_THEORY = SGP/SGP4

EPOCH          = 2025-10-26T21:53:01.216032
MEAN_MOTION    = 15.59054564
ECCENTRICITY   = .00031085
INCLINATION    = 51.6330
RA_OF_ASC_NODE = 12.8443
ARG_OF_PERICENTER = 41.9991
MEAN_ANOMALY   = 318.1240

EPHEMERIS_TYPE = 0
CLASSIFICATION_TYPE = U
NORAD_CAT_ID   = 65733
ELEMENT_SET_NO = 999
REV_AT_EPOCH   = 584
BSTAR          = .12931901E-2
MEAN_MOTION_DOT = .103663E-2
MEAN_MOTION_DDOT = 0

CCSDS_OMM_VERS = 2.0
CREATION_DATE  = 
ORIGINATOR     = 

OBJECT_NAME    = YOTSUBA-KULOVER
OBJECT_ID      = 1998-067XN
CENTER_NAME    = EARTH
REF_FRAME      = TEME
TIME_SYSTEM    = UTC
MEAN_ELEMENT_THEORY = SGP/SGP4

EPOCH          = 2025-10-26T10:30:02.017440
MEAN_MOTION    = 15.52498058
ECCENTRICITY   = .00023548
INCLINATION    = 51.6338
RA_OF_ASC_NODE = 16.4226
ARG_OF_PERICENTER = 309.1775
MEAN_ANOMALY   = 50.9005

EPHEMERIS_TYPE = 0
CLASSIFICATION_TYPE = U
NORAD_CAT_ID   = 65941
ELEMENT_SET_NO = 999
REV_AT_EPOCH   = 249
BSTAR          = .81795852E-3
MEAN_MOTION_DOT = .50897E-3
MEAN_MOTION_DDOT = 0

CCSDS_OMM_VERS = 2.0
CREATION_DATE  = 
ORIGINATOR     = 

OBJECT_NAME    = BOTAN
OBJECT_ID      = 1998-067XP
CENTER_NAME    = EARTH
REF_FRAME      = TEME
TIME_SYSTEM    = UTC
MEAN_ELEMENT_THEORY = SGP/SGP4

EPOCH          = 2025-10-26T15:03:30.874752
MEAN_MOTION    = 15.53142007
ECCENTRICITY   = .00041915
INCLINATION    = 51.6339
RA_OF_ASC_NODE = 15.4407
ARG_OF_PERICENTER = 334.4540
MEAN_ANOMALY   = 25.6243

EPHEMERIS_TYPE = 0
CLASSIFICATION_TYPE = U
NORAD_CAT_ID   = 65942
ELEMENT_SET_NO = 999
REV_AT_EPOCH   = 252
BSTAR          = .11331221E-2
MEAN_MOTION_DOT = .72575E-3
MEAN_MOTION_DDOT = 0

CCSDS_OMM_VERS = 2.0
CREATION_DATE  = 
ORIGINATOR     = 

OBJECT_NAME    = E-KAGAKU-1
OBJECT_ID      = 1998-067XQ
CENTER_NAME    = EARTH
REF_FRAME      = TEME
TIME_SYSTEM    = UTC
MEAN_ELEMENT_THEORY = SGP/SGP4

EPOCH          = 2025-10-26T10:29:28.283424
MEAN_MOTION    = 15.52513453
ECCENTRICITY   = .00040855
INCLINATION    = 51.6337
RA_OF_ASC_NODE = 16.4198
ARG_OF_PERICENTER = 323.6954
MEAN_ANOMALY   = 36.3758

EPHEMERIS_TYPE = 0
CLASSIFICATION_TYPE = U
NORAD_CAT_ID   = 65943
ELEMENT_SET_NO = 999
REV_AT_EPOCH   = 249
BSTAR          = .79166282E-3
MEAN_MOTION_DOT = .49272E-3
MEAN_MOTION_DDOT = 0

CCSDS_OMM_VERS = 2.0
CREATION_DATE  = 
ORIGINATOR     = 

OBJECT_NAME    = HRC MONOBLOCK CAMERA
OBJECT_ID      = 1998-067XR
CENTER_NAME    = EARTH
REF_FRAME      = TEME
TIME_SYSTEM    = UTC
MEAN_ELEMENT_THEORY = SGP/SGP4

EPOCH          = 2025-10-26T20:12:41.664960
MEAN_MOTION    = 15.50213849
ECCENTRICITY   = .00040672
INCLINATION    = 51.6329
RA_OF_ASC_NODE = 14.6241
ARG_OF_PERICENTER = 350.3096
MEAN_ANOMALY   = 9.7814

EPHEMERIS_TYPE = 0
CLASSIFICATION_TYPE = U
NORAD_CAT_ID   = 66052
ELEMENT_SET_NO = 999
REV_AT_EPOCH   = 155
BSTAR          = .55977275E-3
MEAN_MOTION_DOT = .31868E-3
MEAN_MOTION_DDOT = 0

